SPAINSAT NG I           
1 62852U 25021A   26183.80216103  .00000162  00000+0  00000+0 0  9991
2 62852   0.0193  15.3608 0000577 142.6715  80.5656  1.00268491  4146
QZS-6 (MICHIBIKI-6)     
1 62876U 25023A   26183.87984711 -.00000223  00000+0  00000+0 0  9992
2 62876   0.0437 284.7659 0002077 191.2588 212.1673  1.00271590  5109
ZHONGXING-10R           
1 63075U 25036A   26183.88759588 -.00000341  00000+0  00000+0 0  9992
2 63075   0.0561 237.4725 0004155 269.2908 204.2292  1.00271017  5113
TJS-15                  
1 63157U 25045A   26183.75929199 -.00000254  00000+0  00000+0 0  9999
2 63157   0.3058  85.5733 0003804 301.9252 260.9777  1.00274962  4911
TIANLIAN 2-04           
1 63361U 25062A   26183.92062704 -.00000123  00000+0  00000+0 0  9999
2 63361   4.3362 274.2078 0031119   9.8369  48.3942  1.00271172  4767
TJS-16                  
1 63397U 25064A   26183.69857794 -.00000095  00000+0  00000+0 0  9993
2 63397   1.1359  81.3849 0002939 299.1841 312.2806  1.00272015  4542
TJS-17                  
1 63524U 25073A   26183.77560743 -.00000059  00000+0  00000+0 0  9999
2 63524   1.1020  82.5843 0001564 315.8143 326.1705  1.00271016  4441
TIANLIAN 2-05           
1 63662U 25084A   26183.30147235  .00000138  00000+0  00000+0 0  9997
2 63662   4.4149 279.6564 0003360 160.7561 328.9206  1.00276640  4532
TJS-19                  
1 63924U 25097A   26183.75314255 -.00000263  00000+0  00000+0 0  9999
2 63924   3.2611 317.6772 0003438 238.0724 137.4555  1.00271699  4308
CHINASAT 3B             
1 64062U 25106A   26182.90284270 -.00000035  00000+0  00000+0 0  9990
2 64062   0.0214 118.6033 0003716  12.5992 281.0656  1.00270454  4201
SXM-10                  
1 64290U 25122A   26183.70220316 -.00000007  00000+0  00000+0 0  9990
2 64290   0.0187  35.0781 0001795 337.5022  44.7826  1.00274129  3838
COSMOS 2589             
1 64467U 25131A   26183.75492887 -.00000280  00000+0  00000+0 0  9998
2 64467   0.0398 102.1054 0000936 108.8979  79.5624  1.00272301  3712
CHINASAT 9C             
1 64470U 25132A   26183.87735921 -.00000237  00000+0  00000+0 0  9997
2 64470   0.0499 241.0175 0003358 222.6832 225.2586  1.00275544  4304
MTG-S1                  
1 64723U 25143A   26183.72509264  .00000003  00000+0  00000+0 0  9993
2 64723   0.5916 342.2144 0002957 262.9947 296.1264  1.00272109  3574
DROR 1                  
1 64784U 25148A   26183.72439931 -.00000024  00000+0  00000+0 0  9992
2 64784   0.0146   8.4806 0002454  33.0922 135.9571  1.00272349  3453
SHIYAN-29               
1 65486U 25196A   26183.64285059 -.00000268  00000+0  00000+0 0  9996
2 65486  28.8374  18.3404 0013288 174.9626  53.8913  1.00281424  3037
NUSANTARA LIMA (NUSANT*)
1 65588U 25205A   26183.84247909 -.00000347  00000+0  00000+0 0  9992
2 65588   0.0021 103.8441 0000859  26.7647 206.4179  1.00276741  2876
TJS-20                  
1 66142U 25238A   26183.87002616  .00000038  00000+0  00000+0 0  9998
2 66142   5.4358 299.4839 0004733 170.7769 186.2334  1.00272079  2483
CMS-03 (GSAT-7R)        
1 66311U 25249B   26183.87125527 -.00000066  00000+0  00000+0 0  9997
2 66311   0.0567 258.0965 0002032 175.8013 234.6339  1.00271933  2507
VIASAT-3 F2             
1 66454U 25261A   26183.78052934 -.00000223  00000+0  00000+0 0  9995
2 66454   0.0140 144.8195 0000619  26.2815 311.7286  1.00270726  2953
SHIJIAN-28 (SJ-28)      
1 66549U 25277A   26183.84318552 -.00000347  00000+0  00000+0 0  9992
2 66549   4.4996 271.8792 0000763  57.4011  11.9869  1.00276476  2317
TJS-22                  
1 66990U 25290A   26183.83424226  .00000004  00000+0  00000+0 0  9991
2 66990   1.4910 286.7621 0002290 321.2429  39.6773  1.00273618  2189
TJS-23                  
1 67226U 25306A   26183.55995535  .00000030  00000+0  00000+0 0  9996
2 67226   5.5532 297.4079 0004645 185.7194 174.5156  1.00272426  2046
FENGYUN 4C              
1 67246U 25312A   26181.68417231 -.00000312  00000+0  00000+0 0  9993
2 67246   0.0471 163.2991 0000706   4.6384 130.1121  1.00270776  1918
SHIJIAN-29A (SJ-29A)    
1 67302U 25315A   26183.78607454 -.00000058  00000+0  00000+0 0  9997
2 67302   3.4352  94.7457 0003546  26.2449 155.9510  1.00271215  1778
SHIJIAN-29B (SJ-29B)    
1 67403U 25315C   26183.78607468 -.00000059  00000+0  00000+0 0  9995
2 67403   3.4341  94.7401 0004765  42.6627 139.5767  1.00273573  1840
ELEKTRO-L 5             
1 67756U 26028A   26183.01079752 -.00000087  00000+0  00000+0 0  9994
2 67756   0.2263 318.4343 0001837 181.2265 220.3488  1.00272068  1404
JAM-E JAM 1             
1 67757U 26028B   26183.85953278  .00000167  00000+0  00000+0 0  9999
2 67757   0.2297 307.3118 0001234 339.6513 337.4102  1.00268636  1279
ECHOSTAR 25             
1 68126U 26045A   26183.70341648  .00000000  00000+0  00000+0 0  9991
2 68126   0.0206  33.6434 0001717  76.4194 313.9217  1.00268939  1143
TJS-24                  
1 69235U 26116A   26183.75826725 -.00000221  00000+0  00000+0 0  9997
2 69235   0.0486 100.1523 0000282 343.1615 200.7297  1.00274390   386
